[{"OBJECT_NAME":"OBJECT J","OBJECT_ID":"2023-085J","EPOCH":"2026-03-09T22:47:59.920512","MEAN_MOTION":15.31507187,"ECCENTRICITY":0.00067028,"INCLINATION":97.4828,"RA_OF_ASC_NODE":180.1819,"ARG_OF_PERICENTER":41.7877,"MEAN_ANOMALY":318.3875,"EPHEMERIS_TYPE":0,"CLASSIFICATION_TYPE":"U","NORAD_CAT_ID":57012,"ELEMENT_SET_NO":999,"REV_AT_EPOCH":15156,"BSTAR":0.00064525349,"MEAN_MOTION_DOT":0.00019595,"MEAN_MOTION_DDOT":0},{"OBJECT_NAME":"STARLINK-36096","OBJECT_ID":"2025-286AA","EPOCH":"2026-03-09T23:23:50.261856","MEAN_MOTION":15.30214827,"ECCENTRICITY":0.0001305,"INCLINATION":53.1625,"RA_OF_ASC_NODE":356.8936,"ARG_OF_PERICENTER":111.6885,"MEAN_ANOMALY":248.4255,"EPHEMERIS_TYPE":0,"CLASSIFICATION_TYPE":"U","NORAD_CAT_ID":66949,"ELEMENT_SET_NO":999,"REV_AT_EPOCH":1546,"BSTAR":0.0012270777,"MEAN_MOTION_DOT":0.00036177,"MEAN_MOTION_DDOT":0}]
